OBJECT_NAME,OBJECT_ID,EPOCH,MEAN_MOTION,ECCENTRICITY,INCLINATION,RA_OF_ASC_NODE,ARG_OF_PERICENTER,MEAN_ANOMALY,EPHEMERIS_TYPE,CLASSIFICATION_TYPE,NORAD_CAT_ID,ELEMENT_SET_NO,REV_AT_EPOCH,BSTAR,MEAN_MOTION_DOT,MEAN_MOTION_DDOT
BEIDOU-2 IGSO-5 (C10),2011-073A,2026-06-06T07:03:15.259104,1.00275595,.0113507,47.6993,271.6824,221.7051,318.8875,0,U,37948,999,5302,0,-.158E-5,0
LUCH 5A (SDCM/PRN 140),2011-074B,2026-06-06T14:15:51.287040,1.00269862,.00024014,8.7265,73.9638,12.3562,189.6634,0,U,37951,999,5294,0,-.37E-6,0
BEIDOU-2 G5 (C05),2012-008A,2026-06-06T12:02:28.473216,1.00269803,.00095283,3.5468,69.7625,276.2471,148.2245,0,U,38091,999,5226,0,.71E-6,0
BEIDOU-2 M3 (C11),2012-018A,2026-06-04T20:07:39.150912,1.86230159,.00199271,55.7694,305.2913,274.9392,84.8190,0,U,38250,999,9571,0,-.57E-6,0
BEIDOU-2 M4 (C12),2012-018B,2026-06-04T18:30:08.491968,1.86229610,.00111764,55.6694,304.5088,276.7033,83.1552,0,U,38251,999,9571,0,-.57E-6,0
SES-5 (EGNOS/PRN 136),2012-036A,2026-06-06T13:29:42.600768,1.00271236,.00021605,0.0514,309.0983,123.0608,30.2291,0,U,38652,999,4435,0,.47E-6,0
BEIDOU-2 M6 (C14),2012-050B,2026-06-06T02:11:54.088800,1.86231002,.00139088,56.5348,63.2614,355.5255,4.4903,0,U,38775,999,9310,0,-.38E-6,0
GSAT-10 (GAGAN/PRN 128),2012-051B,2026-06-06T14:16:51.537216,1.00271940,.00080163,0.0185,261.7493,186.9244,103.5838,0,U,38779,999,4999,0,-.152E-5,0
GPS BIIF-3  (PRN 24),2012-053A,2026-06-06T08:20:46.425120,2.00567344,.01796965,53.5839,144.0434,65.6043,296.2529,0,U,38833,999,9922,0,.87E-6,0
GSAT0103 (GALILEO-FM3),2012-055A,2026-06-05T03:46:28.790688,1.70473498,.00051664,55.7989,101.8756,302.6849,57.2312,0,U,38857,999,8480,0,.18E-6,0
BEIDOU-2 G6 (C02),2012-059A,2026-06-05T20:45:32.963040,1.00275005,.00101539,4.3922,73.6449,324.2775,251.7272,0,U,38953,999,4979,0,-.163E-5,0
LUCH 5B (SDCM/PRN 125),2012-061A,2026-06-05T23:41:51.203616,1.00274220,.00016665,10.4571,49.9907,137.7014,45.8723,0,U,38977,999,4949,0,-.127E-5,0
COSMOS 2485 (747),2013-019A,2026-06-06T02:48:31.416192,2.13103501,.00234828,65.4139,73.9758,234.9271,124.8751,0,U,39155,999,10204,0,-.7E-7,0
GPS BIIF-4  (PRN 27),2013-023A,2026-06-05T05:12:52.058880,2.00563607,.01416227,54.5137,269.4614,50.9838,310.2894,0,U,39166,999,9564,0,-.27E-6,0
IRNSS-1A,2013-034A,2026-05-22T20:37:38.469792,1.00280263,.00166187,35.6649,64.2334,185.3754,355.4646,0,U,39199,999,4711,0,.59E-6,0
GPS BIIF-5  (PRN 30),2014-008A,2026-06-06T05:10:58.021248,2.00559138,.00842346,53.6529,149.7672,231.0946,128.1524,0,U,39533,999,8946,0,.88E-6,0
ASTRA 5B (EGNOS/PRN 123),2014-011B,2026-06-06T13:35:04.585920,1.00269454,.00022236,0.0595,315.2784,107.5370,59.4508,0,U,39617,999,4456,0,.15E-5,0
COSMOS 2492 (754),2014-012A,2026-06-05T14:33:35.280576,2.13103514,.00105609,65.3049,314.3293,326.8783,33.0498,0,U,39620,999,9499,0,-.31E-6,0
IRNSS-1B,2014-017A,2026-05-19T20:39:38.653920,1.00280229,.00242269,28.9733,240.8911,185.2284,176.5740,0,U,39635,999,4451,0,.103E-5,0
LUCH 5V (SDCM/PRN 141),2014-023A,2026-06-06T04:58:38.897760,1.00268523,.0002802,5.1060,69.8596,28.7178,325.4279,0,U,39727,999,4424,0,-.255E-5,0
GPS BIIF-6  (PRN 06),2014-026A,2026-06-05T23:49:36.484032,2.00561927,.00382668,56.5039,331.9533,326.7338,33.0317,0,U,39741,999,8831,0,-.62E-6,0
COSMOS 2500 (755),2014-032A,2026-06-05T07:22:31.262592,2.13106228,.00069216,65.2399,314.0875,182.6987,177.2913,0,U,40001,999,9320,0,-.32E-6,0
GPS BIIF-7  (PRN 09),2014-045A,2026-06-06T02:01:34.351968,2.00557729,.00328616,55.3463,88.9073,118.4040,241.9212,0,U,40105,999,8585,0,.7E-7,0
GSAT0201 (GALILEO 5),2014-050A,2026-06-02T20:44:38.047200,1.85520153,.16724063,48.8915,274.0236,178.8372,181.6513,0,U,40128,999,7805,0,-.5E-6,0
GSAT0202 (GALILEO 6),2014-050B,2026-06-05T19:33:21.866688,1.85520656,.16740733,48.9049,272.9882,179.6779,180.4916,0,U,40129,999,8027,0,-.47E-6,0
IRNSS-1C,2014-061A,2026-06-06T08:43:40.032192,1.00271038,.00225969,6.4911,89.1329,1.2266,18.3662,0,U,40269,999,4258,0,-.149E-5,0
GPS BIIF-8  (PRN 03),2014-068A,2026-06-06T10:53:28.523904,2.00575579,.0066799,56.9803,31.3683,70.1816,290.5925,0,U,40294,999,8499,0,-.67E-6,0
COSMOS 2501 (702K),2014-075A,2026-06-05T02:23:58.838784,2.13101471,.00224347,63.6155,190.7905,212.0821,147.8495,0,U,40315,999,8959,0,.7E-6,0
GPS BIIF-9  (PRN 26),2015-013A,2026-06-05T02:18:11.228256,2.00552074,.01093013,53.1687,204.6778,40.1042,320.7783,0,U,40534,999,8158,0,.46E-6,0
GSAT0203 (GALILEO 7),2015-017A,2026-06-05T11:32:53.568384,1.70476258,.00020943,56.7910,341.9146,282.9852,77.0035,0,U,40544,999,6900,0,-.68E-6,0
GSAT0204 (GALILEO 8),2015-017B,2026-06-05T03:36:30.892320,1.70475724,.0001822,56.7982,341.9422,253.1460,106.8459,0,U,40545,999,3204,0,-.69E-6,0
